ISS (ZARYA)             
1 25544U 98067A   26095.81141530  .00008309  00000+0  15990-3 0  9991
2 25544  51.6329 298.2672 0006355 276.3215  83.7049 15.48791307560534
POISK                   
1 36086U 09060A   26095.81141530  .00008309  00000+0  15990-3 0  9999
2 36086  51.6329 298.2672 0006355 276.3215  83.7049 15.48791307560368
CSS (TIANHE)            
1 48274U 21035A   26095.89999512  .00029649  00000+0  33283-3 0  9991
2 48274  41.4683  42.4237 0003645 135.7211 224.3921 15.61975413281863
ISS (NAUKA)             
1 49044U 21066A   26095.81141530  .00008309  00000+0  15990-3 0  9997
2 49044  51.6329 298.2672 0006355 276.3215  83.7049 15.48791307560401
FREGAT DEB              
1 49271U 11037PF  26095.51225242  .00008541  00000+0  12423-1 0  9990
2 49271  51.6426 220.2066 0955047 120.8974 248.9327 12.40936816216024
CSS (WENTIAN)           
1 53239U 22085A   26095.89999512  .00029649  00000+0  33283-3 0  9994
2 53239  41.4683  42.4237 0003645 135.7211 224.3921 15.61975413282131
CSS (MENGTIAN)          
1 54216U 22143A   26095.89999512  .00029649  00000+0  33283-3 0  9995
2 54216  41.4683  42.4237 0003645 135.7211 224.3921 15.61975413282137
TIANZHOU-9              
1 64786U 25149A   26095.89999512  .00029649  00000+0  33283-3 0  9997
2 64786  41.4683  42.4237 0003645 135.7211 224.3921 15.61975413282130
PROGRESS-MS 32          
1 65586U 25204A   26095.55331950  .00008543  00000+0  16420-3 0  9991
2 65586  51.6328 299.5432 0006351 274.8255  85.2008 15.48786980554507
YOTSUBA-KULOVER         
1 65941U 98067XN  26095.69567935  .00696812  23270-3  12875-2 0  9991
2 65941  51.6141 275.5791 0008666 276.0110  83.9912 16.00515818 27796
BOTAN                   
1 65943U 98067XQ  26095.77572269  .00617649  17787-3  12574-2 0  9991
2 65943  51.6174 275.3932 0008519 270.9470  89.0564 15.98819258 27801
HRC MONOBLOCK CAMERA    
1 66052U 98067XR  26095.79772751  .00067135  00000+0  66088-3 0  9998
2 66052  51.6275 288.4191 0003872 229.5804 130.4854 15.65340581 26630
